CCSDS_OMM_VERS = 2.0
CREATION_DATE  = 
ORIGINATOR     = 

OBJECT_NAME    = COSMOS 2058
OBJECT_ID      = 1990-010A
CENTER_NAME    = EARTH
REF_FRAME      = TEME
TIME_SYSTEM    = UTC
MEAN_ELEMENT_THEORY = SGP/SGP4

EPOCH          = 2026-03-23T08:28:08.416416
MEAN_MOTION    = 15.11438970
ECCENTRICITY   = .0007597
INCLINATION    = 82.4682
RA_OF_ASC_NODE = 33.9637
ARG_OF_PERICENTER = 293.1425
MEAN_ANOMALY   = 66.9005

EPHEMERIS_TYPE = 0
CLASSIFICATION_TYPE = U
NORAD_CAT_ID   = 20465
ELEMENT_SET_NO = 999
REV_AT_EPOCH   = 94430
BSTAR          = .3017E-3
MEAN_MOTION_DOT = .5129E-4
MEAN_MOTION_DDOT = 0

CCSDS_OMM_VERS = 2.0
CREATION_DATE  = 
ORIGINATOR     = 

OBJECT_NAME    = SL-14 R/B
OBJECT_ID      = 1990-010B
CENTER_NAME    = EARTH
REF_FRAME      = TEME
TIME_SYSTEM    = UTC
MEAN_ELEMENT_THEORY = SGP/SGP4

EPOCH          = 2026-03-23T10:42:10.382400
MEAN_MOTION    = 14.83580844
ECCENTRICITY   = .0018383
INCLINATION    = 82.4989
RA_OF_ASC_NODE = 254.4630
ARG_OF_PERICENTER = 253.3912
MEAN_ANOMALY   = 106.5284

EPHEMERIS_TYPE = 0
CLASSIFICATION_TYPE = U
NORAD_CAT_ID   = 20466
ELEMENT_SET_NO = 999
REV_AT_EPOCH   = 93052
BSTAR          = .54916E-4
MEAN_MOTION_DOT = .477E-5
MEAN_MOTION_DDOT = 0

CCSDS_OMM_VERS = 2.0
CREATION_DATE  = 
ORIGINATOR     = 

OBJECT_NAME    = SL-14 R/B
OBJECT_ID      = 1990-018B
CENTER_NAME    = EARTH
REF_FRAME      = TEME
TIME_SYSTEM    = UTC
MEAN_ELEMENT_THEORY = SGP/SGP4

EPOCH          = 2026-03-23T09:49:39.268992
MEAN_MOTION    = 14.82158381
ECCENTRICITY   = .0017292
INCLINATION    = 82.5228
RA_OF_ASC_NODE = 210.2676
ARG_OF_PERICENTER = 50.3754
MEAN_ANOMALY   = 309.8983

EPHEMERIS_TYPE = 0
CLASSIFICATION_TYPE = U
NORAD_CAT_ID   = 20511
ELEMENT_SET_NO = 999
REV_AT_EPOCH   = 92461
BSTAR          = .5861E-4
MEAN_MOTION_DOT = .491E-5
MEAN_MOTION_DDOT = 0

CCSDS_OMM_VERS = 2.0
CREATION_DATE  = 
ORIGINATOR     = 

OBJECT_NAME    = HST
OBJECT_ID      = 1990-037B
CENTER_NAME    = EARTH
REF_FRAME      = TEME
TIME_SYSTEM    = UTC
MEAN_ELEMENT_THEORY = SGP/SGP4

EPOCH          = 2026-03-23T07:37:58.863360
MEAN_MOTION    = 15.29689938
ECCENTRICITY   = .0001482
INCLINATION    = 28.4722
RA_OF_ASC_NODE = 307.0186
ARG_OF_PERICENTER = 281.8932
MEAN_ANOMALY   = 78.1497

EPHEMERIS_TYPE = 0
CLASSIFICATION_TYPE = U
NORAD_CAT_ID   = 20580
ELEMENT_SET_NO = 999
REV_AT_EPOCH   = 77540
BSTAR          = .27547E-3
MEAN_MOTION_DOT = .8388E-4
MEAN_MOTION_DDOT = 0

CCSDS_OMM_VERS = 2.0
CREATION_DATE  = 
ORIGINATOR     = 

OBJECT_NAME    = SL-16 R/B
OBJECT_ID      = 1990-046B
CENTER_NAME    = EARTH
REF_FRAME      = TEME
TIME_SYSTEM    = UTC
MEAN_ELEMENT_THEORY = SGP/SGP4

EPOCH          = 2026-03-23T06:28:50.741472
MEAN_MOTION    = 14.15012758
ECCENTRICITY   = .0016251
INCLINATION    = 70.9954
RA_OF_ASC_NODE = 269.3906
ARG_OF_PERICENTER = 281.8192
MEAN_ANOMALY   = 78.1107

EPHEMERIS_TYPE = 0
CLASSIFICATION_TYPE = U
NORAD_CAT_ID   = 20625
ELEMENT_SET_NO = 999
REV_AT_EPOCH   = 85031
BSTAR          = .97784E-4
MEAN_MOTION_DOT = .142E-5
MEAN_MOTION_DDOT = 0

CCSDS_OMM_VERS = 2.0
CREATION_DATE  = 
ORIGINATOR     = 

OBJECT_NAME    = COSMOS 2084
OBJECT_ID      = 1990-055A
CENTER_NAME    = EARTH
REF_FRAME      = TEME
TIME_SYSTEM    = UTC
MEAN_ELEMENT_THEORY = SGP/SGP4

EPOCH          = 2026-03-23T12:51:34.536960
MEAN_MOTION    = 15.05722611
ECCENTRICITY   = .0014915
INCLINATION    = 62.7894
RA_OF_ASC_NODE = 288.3505
ARG_OF_PERICENTER = 194.0075
MEAN_ANOMALY   = 166.0614

EPHEMERIS_TYPE = 0
CLASSIFICATION_TYPE = U
NORAD_CAT_ID   = 20663
ELEMENT_SET_NO = 999
REV_AT_EPOCH   = 93840
BSTAR          = .18479E-3
MEAN_MOTION_DOT = .249E-4
MEAN_MOTION_DDOT = 0

CCSDS_OMM_VERS = 2.0
CREATION_DATE  = 
ORIGINATOR     = 

OBJECT_NAME    = SL-6 R/B(2)
OBJECT_ID      = 1990-055D
CENTER_NAME    = EARTH
REF_FRAME      = TEME
TIME_SYSTEM    = UTC
MEAN_ELEMENT_THEORY = SGP/SGP4

EPOCH          = 2026-03-23T01:43:33.484512
MEAN_MOTION    = 15.03658176
ECCENTRICITY   = .00269851
INCLINATION    = 62.7831
RA_OF_ASC_NODE = 208.3389
ARG_OF_PERICENTER = 350.1703
MEAN_ANOMALY   = 9.8864

EPHEMERIS_TYPE = 0
CLASSIFICATION_TYPE = U
NORAD_CAT_ID   = 20666
ELEMENT_SET_NO = 999
REV_AT_EPOCH   = 94020
BSTAR          = .21191574E-3
MEAN_MOTION_DOT = .2736E-4
MEAN_MOTION_DDOT = 0

CCSDS_OMM_VERS = 2.0
CREATION_DATE  = 
ORIGINATOR     = 

OBJECT_NAME    = SL-8 R/B
OBJECT_ID      = 1990-078B
CENTER_NAME    = EARTH
REF_FRAME      = TEME
TIME_SYSTEM    = UTC
MEAN_ELEMENT_THEORY = SGP/SGP4

EPOCH          = 2026-03-22T22:41:45.132000
MEAN_MOTION    = 14.89473766
ECCENTRICITY   = .03594746
INCLINATION    = 82.9019
RA_OF_ASC_NODE = 239.3825
ARG_OF_PERICENTER = 329.3321
MEAN_ANOMALY   = 28.7310

EPHEMERIS_TYPE = 0
CLASSIFICATION_TYPE = U
NORAD_CAT_ID   = 20775
ELEMENT_SET_NO = 999
REV_AT_EPOCH   = 81127
BSTAR          = .4974166E-3
MEAN_MOTION_DOT = .16807E-3
MEAN_MOTION_DDOT = 0

CCSDS_OMM_VERS = 2.0
CREATION_DATE  = 
ORIGINATOR     = 

OBJECT_NAME    = SL-8 R/B
OBJECT_ID      = 1991-006B
CENTER_NAME    = EARTH
REF_FRAME      = TEME
TIME_SYSTEM    = UTC
MEAN_ELEMENT_THEORY = SGP/SGP4

EPOCH          = 2026-03-23T11:42:17.343936
MEAN_MOTION    = 13.77496299
ECCENTRICITY   = .0022204
INCLINATION    = 82.9455
RA_OF_ASC_NODE = 159.7881
ARG_OF_PERICENTER = 0.3297
MEAN_ANOMALY   = 10.1471

EPHEMERIS_TYPE = 0
CLASSIFICATION_TYPE = U
NORAD_CAT_ID   = 21088
ELEMENT_SET_NO = 999
REV_AT_EPOCH   = 76597
BSTAR          = .90685E-4
MEAN_MOTION_DOT = .106E-5
MEAN_MOTION_DDOT = 0

CCSDS_OMM_VERS = 2.0
CREATION_DATE  = 
ORIGINATOR     = 

OBJECT_NAME    = OKEAN-3
OBJECT_ID      = 1991-039A
CENTER_NAME    = EARTH
REF_FRAME      = TEME
TIME_SYSTEM    = UTC
MEAN_ELEMENT_THEORY = SGP/SGP4

EPOCH          = 2026-03-23T09:02:24.057312
MEAN_MOTION    = 15.04888343
ECCENTRICITY   = .0012543
INCLINATION    = 82.5171
RA_OF_ASC_NODE = 323.5839
ARG_OF_PERICENTER = 285.8960
MEAN_ANOMALY   = 74.0884

EPHEMERIS_TYPE = 0
CLASSIFICATION_TYPE = U
NORAD_CAT_ID   = 21397
ELEMENT_SET_NO = 999
REV_AT_EPOCH   = 86709
BSTAR          = .19335E-3
MEAN_MOTION_DOT = .2766E-4
MEAN_MOTION_DDOT = 0

CCSDS_OMM_VERS = 2.0
CREATION_DATE  = 
ORIGINATOR     = 

OBJECT_NAME    = COSMOS 2151
OBJECT_ID      = 1991-042A
CENTER_NAME    = EARTH
REF_FRAME      = TEME
TIME_SYSTEM    = UTC
MEAN_ELEMENT_THEORY = SGP/SGP4

EPOCH          = 2026-03-23T11:46:41.312352
MEAN_MOTION    = 15.00158311
ECCENTRICITY   = .0013019
INCLINATION    = 82.4941
RA_OF_ASC_NODE = 70.3588
ARG_OF_PERICENTER = 21.2048
MEAN_ANOMALY   = 338.9713

EPHEMERIS_TYPE = 0
CLASSIFICATION_TYPE = U
NORAD_CAT_ID   = 21422
ELEMENT_SET_NO = 999
REV_AT_EPOCH   = 86526
BSTAR          = .1686E-3
MEAN_MOTION_DOT = .2134E-4
MEAN_MOTION_DDOT = 0

CCSDS_OMM_VERS = 2.0
CREATION_DATE  = 
ORIGINATOR     = 

OBJECT_NAME    = SL-14 R/B
OBJECT_ID      = 1991-042B
CENTER_NAME    = EARTH
REF_FRAME      = TEME
TIME_SYSTEM    = UTC
MEAN_ELEMENT_THEORY = SGP/SGP4

EPOCH          = 2026-03-23T07:55:44.152896
MEAN_MOTION    = 14.81843109
ECCENTRICITY   = .0016742
INCLINATION    = 82.4947
RA_OF_ASC_NODE = 207.3928
ARG_OF_PERICENTER = 191.5367
MEAN_ANOMALY   = 168.5466

EPHEMERIS_TYPE = 0
CLASSIFICATION_TYPE = U
NORAD_CAT_ID   = 21423
ELEMENT_SET_NO = 999
REV_AT_EPOCH   = 85509
BSTAR          = .62244E-4
MEAN_MOTION_DOT = .516E-5
MEAN_MOTION_DDOT = 0

